{
  "elements": [
	{
	  "name": "ArchiVrac",
	  "website": "http://www.archivrac.com/",
	  "bulk_purchase": "only",
	  "organic": "yes",
	  "validated_with_owner": false,
	  "places": []
	},
	{
	  "name": "Au Poids Chiche",
	  "website": "https://www.facebook.com/aupoidschiche",
	  "bulk_purchase": "only",
	  "organic": "yes",
	  "validated_with_owner": false,
	  "places": []
	},
	{
	  "name": "Aux Merveilles d’Alice",
	  "website": "https://facebook.com/aliceetsesmerveilles/",
	  "bulk_purchase": "only",
	  "organic": "yes",
	  "validated_with_owner": false,
	  "places": []
	},
  	{
	  "name": "Épicerie Bigre",
	  "website": "https://www.epiceriebigre.com/",
	  "bulk_purchase": "only",
	  "organic": "yes",
	  "validated_with_owner": false,
	  "places": [
	  	{
	  		"lat": 48.80620,
	  		"lon": 2.13205,
	    	"place_name": "Marche Notre Dame, Versailles"
		},
		{
	  		"lat": 48.79844,
	  		"lon": 2.12471,
	    	"place_name": "Marche Saint Louis, Versailles"
		}
	  ]
	},
  	{
	  "name": "Envie d'épices",
	  "website": "https://www.facebook.com/enviedepices",
	  "bulk_purchase": "only",
	  "organic": "only",
	  "validated_with_owner": false,
	  "places": [
	  	{
	  		"lat": 47.27923,
	  		"lon": -2.21563,
	    	"place_name": "Marché des Halles, Saint-Nazaire"
		}
	  ]
	},
	{
	  "name": "La Main dans l'Sac",
	  "website": "http://lamaindanslsac.fr/",
	  "bulk_purchase": "only",
	  "organic": "yes",
	  "validated_with_owner": false,
	  "places": []
	},
  	{
	  "name": "La p'tite roulotte",
	  "website": "http://www.laptiteroulotte.com/",
	  "bulk_purchase": "only",
	  "organic": "yes",
	  "validated_with_owner": false,
	  "places": [
	  	{
	  		"lat": 44.84111,
	  		"lon": 0.21619,
	    	"place_name": "Marché de Sainte-Foy-la-Grande, Place du marché"
		},
		{
	  		"lat": 44.91485,
	  		"lon": -0.24491,
	    	"place_name": "Marché de Libourne, Place Abel Surchamp"
		},
		{
	  		"lat": 44.8534,
	  		"lon": -0.04352,
	    	"place_name": "Marché de Castillon La Bataille, Place Boyer Andrivet"
		},
		{
	  		"lat": 44.8404653, 
	  		"lon": 0.1217308,
	    	"place_name": "Marché de producteurs, Ferme des Gardes - Saint-Antoine-de-Breuilh"
		}
	  ]
	},
	{
	  "name": "La Réserve Bio",
	  "website": "https://reservebio.fr/emplacement/",
	  "bulk_purchase": "only",
	  "organic": "yes",
	  "validated_with_owner": false,
	  "places": [
	  	{
	  		"lat": 47.315953,
	  		"lon": 5.02600,
	    	"place_name": "Marché du Port du Canal"
		},
	  	{
	  		"lat": 47.230157,
	  		"lon": 5.19464,
	    	"place_name": "Marché de Varanges"
		},
	  	{
	  		"lat": 47.280558,
	  		"lon": 5.002832,
	    	"place_name": "Marché de Marsannay-la-Côte"
		},
	  	{
	  		"lat": 47.297403,
	  		"lon": 4.808365,
	    	"place_name": "Marché de Pont-de-Pany"
		},
	  	{
	  		"lat": 47.133509,
	  		"lon": 5.215763,
	    	"place_name": "Marché Brazey-en-Plaine"
		},
	  	{
	  		"lat": 47.136503,
	  		"lon": 4.949739,
	    	"place_name": "Marché Nuits-Saint-Georges"
		},
	  	{
	  		"lat": 47.242861,
	  		"lon": 5.219892,
	    	"place_name": "Marché Genlis"
		},
	  	{
	  		"lat": 47.121478,
	  		"lon": 5.399453,
	    	"place_name": "Marché Bio Ferme de la Bussière"
		},
	  	{
	  		"lat": 47.313230,
	  		"lon": 5.110987,
	    	"place_name": "Marché Bio de Quetigny"
		},
	  	{
	  		"lat": 47.319045,
	  		"lon": 5.040519,
	    	"place_name": "Marché Place des Cordeliers - Dijon"
		},
	  	{
	  		"lat": 47.521913,
	  		"lon": 5.112264,
	    	"place_name": "Marché Is-sur-Tille"
		}
	  ]
	},
	{
	  "name": "La Vrac en Folie",
	  "website": "https://www.facebook.com/lavracenfolie/",
	  "bulk_purchase": "only",
	  "organic": "yes",
	  "validated_with_owner": false,
	  "places": []
	},
	{
	  "name": "La Vrac Mobile",
	  "website": "https://www.vrac-mobile.com/",
	  "bulk_purchase": "only",
	  "organic": "yes",
	  "validated_with_owner": true,
	  "places": [
	  	{
	  		"lat": 43.4838, 
	  		"lon": -1.51186,
	  		"place_name": "Marché de Quintaou - Anglet"
	  	},
	  	{
	  		"lat": 43.36816,
	  		"lon": -1.78145, 
	  		"place_name": "Water Sports Center - Quai de Floride, Hendaye"
	  	},
	  	{
	  		"lat": 43.67087,
	  		"lon": -1.39,
	  		"place_name": "Parking Billabong - 100 av. Sabotiers, Soorts-Hossegor"
	  	},
	  	{
	  		"lat": 43.66411,
	  		"lon": -1.39487,
	  		"place_name": "Marché de Pays de Soorts - 19 av. du centre, Soorts-Hossegor"
	  	}
	  ]
	},
	{
	  "name": "Le BoCal'Mion",
	  "website": "https://www.facebook.com/lebocalmion",
	  "bulk_purchase": "only",
	  "organic": "yes",
	  "validated_with_owner": false,
	  "places": []
	},
	{
	  "name": "Les Z’écolonomiks",
	  "website": "https://www.facebook.com/LesZecolonomiks/",
	  "bulk_purchase": "only",
	  "organic": "yes",
	  "validated_with_owner": false,
	  "places": [
	  	{
	  		"lat": 43.95445, 
	  		"lon": 5.02669,
	  		"place_name": "Marché de Velleron"
	  	}
	  ]
	},
	{
	  "name": "Mik'a Vrak",
	  "website": "https://www.facebook.com/mikavrak/",
	  "bulk_purchase": "only",
	  "organic": "yes",
	  "validated_with_owner": false,
	  "places": [
	  	{
	  		"lat": 45.93492, 
	  		"lon": -0.52394,
	  		"place_name": "Marché de Saint-Jean-d'Angély"
	  	},
	  	{
	  		"lat": 45.86658, 
	  		"lon": -0.25780,
	  		"place_name": "Marché de Haimps"
	  	},
	  	{
	  		"lat": 45.75692, 
	  		"lon": -0.61729,
	  		"place_name": "L'autre marché au silo, Saintes"
	  	},
	  	{
	  		"lat": 45.79961, 
	  		"lon": -0.43784,
	  		"place_name": "Marché fermier, Villars-les-bois"
	  	}
	  ]
	},
	{
	  "name": "On Part en Vrac",
	  "website": "https://www.onpartenvrac.com/",
	  "bulk_purchase": "only",
	  "organic": "yes",
	  "validated_with_owner": false,
	  "places": []
	},
	{
	  "name": "Tootopoids",
	  "website": "https://tootopoids.com/",
	  "bulk_purchase": "only",
	  "organic": "yes",
	  "validated_with_owner": false,
	  "places": [

	  ]
	},
	{
	  "name": "Tour'N Vrac",
	  "website": "https://www.facebook.com/tournvrac",
	  "bulk_purchase": "only",
	  "organic": "yes",
	  "validated_with_owner": true,
	  "places": [
	  	{
	  		"lat": 47.11272,
	  		"lon": 0.62188,
	  		"place_name": "Marché de Sainte-Maure-de-Touraine"
	  	},
	  	{
	  		"lat": 47.12008,
	  		"lon": 0.42450,
	  		"place_name": "Marché de L'Ile Bouchard"
	  	},
	  	{
	  		"lat": 46.97420,
	  		"lon": 0.69966,
	  		"place_name": "Marché de Descartes"
	  	},
	  	{
	  		"lat": 47.04341,
	  		"lon": 0.81833,
	  		"place_name": "Marché et AMAP de Ligueil"
	  	},
	  	{
	  		"lat": 47.01206,
	  		"lon": 0.32641,
	  		"place_name": "Marché et AMAP de Richelieu"
	  	},
	  	{
	  		"lat": 47.05072,
	  		"lon": 0.54752,
	  		"place_name": "Marché de Nouâtre"
	  	},
	  	{
	  		"lat": 46.94817,
	  		"lon": 0.41468 ,
	  		"place_name": "Boulangerie de Jaulnay"
	  	}
 	  ]
	},
  	{
	  "name": "Un p'tit grain de...!",
	  "website": "https://www.unptitgrainde.com/",
	  "bulk_purchase": "only",
	  "organic": "only",
	  "validated_with_owner": true,
	  "places": [
	  	{
	  		"lat": 47.58494,
	  		"lon": -3.07594,
	  		"place_name": "Carnac"
	  	},
	  	{
	  		"lat": 47.72031,
	  		"lon": -2.99904,
	  		"place_name": "Brec'h"
	  	},
	  	{
	  		"lat": 47.61606,
	  		"lon": -3.00139,
	  		"place_name": "Crac'h"
	  	},
	  	{
	  		"lat": 47.60645,
	  		"lon": -2.99570,
	  		"place_name": "Cap Ressourcerie - Crac'h"
	  	},
	  	{
	  		"lat": 47.66215,
	  		"lon": -3.00406,
	  		"place_name": "Devant la boutique en bois - Auray (sur Commande)"
	  	},
	  	{
	  		"lat": 47.63877,
	  		"lon": -3.04876,
	  		"place_name": "Devant le Bocal - Carnac"
	  	}
	  ]
	},
	{
	  "name": "V'la le Vrac",
	  "website": "https://www.facebook.com/VLALEVRAC",
	  "bulk_purchase": "only",
	  "organic": "yes",
	  "validated_with_owner": false,
	  "places": []
	},
	{
	  "name": "Vrac en Vadrouille",
	  "website": "http://www.vracenvadrouille.fr/",
	  "bulk_purchase": "only",
	  "organic": "yes",
	  "validated_with_owner": false,
	  "places": [
	  	{
	  		"lat": 44.77667,
	  		"lon": -1.11951,
	  		"place_name": "A côté du Locavor, Arès"
	  	},
	  	{
	  		"lat": 44.69043,
	  		"lon": -0.85448,
	  		"place_name": "Marché local, Marcheprime"
	  	},
	  	{
	  		"lat": 44.66382,
	  		"lon": -0.91196,
	  		"place_name": "Petit Marché des Argentières, Biganos"
	  	},
	  	{
	  		"lat": 44.55146,
	  		"lon": -0.86891,
	  		"place_name": "Marché de Salles, Salles"
	  	},
	  	{
	  		"lat": 44.63976,
	  		"lon": -1.07106,
	  		"place_name": "Marché de Gujan-Mestras"
	  	},
	  	{
	  		"lat": 44.86476,
	  		"lon": -0.58749,
	  		"place_name": "Marché du Bouscat, Bouscat"
	  	}
	  ]
	},
	{
	  "name": "Vrac'n Roule'",
	  "website": "https://www.facebook.com/vracnroule/",
	  "bulk_purchase": "only",
	  "organic": "yes",
	  "validated_with_owner": false,
	  "places": [
	  	{
	  		"lat": 47.14476,
	  		"lon": -1.69022,
	  		"place_name": "Devant la salle Jacqueline Auriol - Bouaye"
	  	},
	  	{
	  		"lat": 47.18811,
	  		"lon": -1.68345,
	  		"place_name": "Marché de la Montagne - place Similien Guérin"
	  	},
	  	{
	  		"lat": 47.14189,
	  		"lon": -1.68879,
	  		"place_name": "Marché de Bouaye - place du Marché"
	  	},
	  	{
	  		"lat": 47.19234,
	  		"lon": -1.72550,
	  		"place_name": "Devant la salle des Genets - Saint-Jean-de-Boiseau"
	  	},
	  	{
	  		"lat": 47.21475,
	  		"lon": -1.90364,
	  		"place_name": "Ferme de Sergonne - Frossay"
	  	},
	  	{
	  		"lat": 47.08060,
	  		"lon": -2.03632,
	  		"place_name": "Marché de La Bernerie - bd. Chaussé du Pays de Retz"
	  	},
	  	{
	  		"lat": 47.06912,
	  		"lon": -1.91057,
	  		"place_name": "Ferme des Clos Mouillés - Bourgneuf"
	  	},
	  	{
	  		"lat": 47.20170,
	  		"lon": -1.75461,
	  		"place_name": "Marché du Pellerin - rue du docteur Sourdille"
	  	}
	  ]
	}
  ]
}
