{
  "elements": [
  	{
	  "name": "Ang'en Vrac",
	  "website": "https://angen-vrac.fr/",
	  "bulk_purchase": "only",
	  "organic": "yes",
	  "validated_with_owner": false,
	  "places": [
	  	{
	  		"lat": 47.20619,
	  		"lon": -1.50587,
	    	"place_name": "Marché de Saint-Sébastien-sur-Loire"
		},
		{
	  		"lat": 47.20052,
	  		"lon": -1.14701,
	    	"place_name": "Marché de La Chaussaire"
		},
		{
	  		"lat": 47.28669,
	  		"lon": -1.19051,
	    	"place_name": "Marché de Saint-Laurent-des-Autels"
		},
		{
	  		"lat": 47.29957,
	  		"lon": -1.54901,
	    	"place_name": "Marché de La Chapelle-sur-Erdre"
		},
		{
	  		"lat": 47.33922,
	  		"lon": -1.52662,
	    	"place_name": "Marché de Sucé-sur-Erdre"
		},
		{
	  		"lat": 47.33739,
	  		"lon": -1.26694,
	    	"place_name": "Marché de Champtoceaux"
		},
		{
	  		"lat": 47.16981,
	  		"lon": -1.47010,
	    	"place_name": "Marché de Vertou"
		}
	  ]
	},
	{
	  "name": "ArchiVrac",
	  "website": "http://www.archivrac.com/",
	  "bulk_purchase": "only",
	  "organic": "yes",
	  "validated_with_owner": false,
	  "places": []
	},
	{
	  "name": "Au Poids Chiche",
	  "website": "https://www.facebook.com/aupoidschiche",
	  "bulk_purchase": "only",
	  "organic": "yes",
	  "validated_with_owner": false,
	  "places": []
	},
	{
	  "name": "Au pti vrac",
	  "website": "https://auptivrac.fr",
	  "bulk_purchase": "only",
	  "organic": "only",
	  "validated_with_owner": false,
	  "places": [
	  	{
	  		"lat": 50.41715,
	  		"lon": 1.64319,
	    	"place_name": "Boulangerie Yannick Berly, Rang du Fliers"
		},
		{
	  		"lat": 50.40414,
	  		"lon": 1.56388,
	    	"place_name": "Marché de Berck plage"
		},
		{
	  		"lat": 50.21416,
	  		"lon": 1.62798,
	    	"place_name": "Marché Le crotoy"
		},
		{
	  		"lat": 50.38432,
	  		"lon": 1.59041,
	    	"place_name": "Ferme des hauts près, Groffliers"
		},
		{
	  		"lat": 50.46135,
	  		"lon": 1.75978,
	    	"place_name": "Marché de Montreuil sur mer"
		},
		{
	  		"lat": 50.63912,
	  		"lon": 2.38425,
	    	"place_name": "Le comptoir laitier, Aire sur la Lys"
		}
	  ]
	},
	{
	  "name": "En Vrac'drouille",
	  "website": "https://envracdrouille.fr",
	  "bulk_purchase": "only",
	  "organic": "yes",
	  "validated_with_owner": false,
	  "places": [
	  	{
	  		"lat": 49.398809,
	  		"lon": 2.091792,
	    	"place_name": "40 rue Sénéfontaine, 60000 Allonne"
		},
		{
	  		"lat": 49.418528,
	  		"lon": 2.157527,
	    	"place_name": "Mairie de Therdonne, 1 Place Amédée Langlet, 60510 Therdonne"
		},
		{
	  		"lat": 49.301904,
	  		"lon": 1.987547,
	    	"place_name": "Rue de la Mairie, 60240 Le Mesnil-Théribus"
		},
		{
	  		"lat": 49.39172,
	  		"lon": 1.78321,
	    	"place_name": "Rue du Tour de Ville, 60590 Lalande-en-son"
		},
		{
	  		"lat": 49.482676,
	  		"lon": 1.725349,
	    	"place_name": "Marché de Gournay-en-bray, rue du Docteur Duchesnes"
		},
		{
	  		"lat": 49.430048,
	  		"lon": 2.084297,
	    	"place_name": "Marché de Beauvais"
		},
		{
	  		"lat": 49.503268,
	  		"lon": 1.995776,
	    	"place_name": "Marché de Milly-sur-Thérain"
		},
		{
	  		"lat": 49.423161,
	  		"lon": 1.990884,
	    	"place_name": "Marché de Saint-Paul"
		},
		{
	  		"lat": 49.399759,
	  		"lon": 1.875402,
	    	"place_name": "Lalandelle"
		},
		{
	  		"lat": 49.355591,
	  		"lon": 1.76821,
	    	"place_name": "Sérifontaine"
		}
	  ]
	},
	{
	  "name": "Epicerie du Kangourou",
	  "website": "https://www.epicerie-du-kangourou.fr/points-de-vente-gers/",
	  "bulk_purchase": "only",
	  "organic": "only",
	  "validated_with_owner": false,
	  "places": [
	  	{
	  		"lat": 43.626589,
	  		"lon": 0.875940,
	    	"place_name": "Marché de Gimont"
		},
		{
	  		"lat": 43.635852,
	  		"lon": 0.584515,
	    	"place_name": "Marché des Hebdos Bios - Auch"
		},
		{
	  		"lat": 43.722125,
	  		"lon": 0.977512,
	    	"place_name": "Marché de Cologne"
		},
		{
	  		"lat": 43.934735,
	  		"lon": 0.619645,
	    	"place_name": "Marché de Lectoure"
		},
		{
	  		"lat": 43.699147,
	  		"lon": 0.618621,
	    	"place_name": "Vente à La Ferme En Coton - Auch"
		},
		{
	  		"lat": 43.646433,
	  		"lon": 0.585044,
	    	"place_name": "Marché de Auch"
		}
	  ]
	},,
	{
	  "name": "Epicerie Le Gramme",
	  "website": "http://epicerielegramme.fr/",
	  "bulk_purchase": "only",
	  "organic": "yes",
	  "validated_with_owner": false,
	  "places": [
	  	{
	  		"lat": 43.61655,
	  		"lon": 4.00917,
	    	"place_name": "Marché de Mauguio"
		},
		{
	  		"lat": 43.58464,
	  		"lon": 3.80388,
	    	"place_name": "Marché de Lavérune"
		},
		{
	  		"lat": 43.74380,
	  		"lon": 4.00091,
	    	"place_name": "Marché de Saint-Jean-de-Cornies"
		},
		{
	  		"lat": 43.76708,
	  		"lon": 3.86493,
	    	"place_name": "AMAP de Saint-Mathieu-de-Tréviers"
		}
	  ]
	},
	{
	  "name": "Epicerie Mini Ma Liste",
	  "website": "https://www.epicerie-minimaliste.fr",
	  "bulk_purchase": "only",
	  "organic": "only",
	  "validated_with_owner": false,
	  "places": [
	  	{
	  		"lat": 47.128783399999996,
	  		"lon": 0.9954384,
	    	"place_name": "Marché de Loches, Loches"
		},
		{
	  		"lat": 47.4110351,
	  		"lon": 0.983698,
	    	"place_name": "Marché d'Amboise"
		},
		{
	  		"lat": 47.2323025,
	  		"lon": 0.9163536,
	    	"place_name": "Marché de Reignac"
		},
		{
	  		"lat": 47.34380340576172,
	  		"lon": 1.1848828792572021,
	    	"place_name": "Montrichard"
		},
		{
	  		"lat": 47.2869884,
	  		"lon": 0.7409855,
	    	"place_name": "Veigné"
		}  ,
		{
	  		"lat": 47.28427505493164,
	  		"lon": 0.7810690999031067,
	    	"place_name": "Evres-Sur-Indre"
		}  ,
		{
	  		"lat": 47.2872408,
	  		"lon": 0.7144705,
	    	"place_name": "Montbazon"
		}  ,
		{
	  		"lat": 47.3551139831543,
	  		"lon": 0.9058051109313965,
	    	"place_name": "Saint-Martin-Le-Beau"
		}  ,
		{
	  		"lat": 47.1824204,
	  		"lon": 0.9684561,
	    	"place_name": "Chambourg-Sur-Indre"
		}  ,
		{
	  		"lat": 47.3577,
	  		"lon": 0.739923,
	    	"place_name": "Saint-Avertin"
		}  ,
		{
	  		"lat": 47.3900474,
	  		"lon": 0.6889268,
	    	"place_name": "Tours"
		}  ,
		{
	  		"lat": 47.26921844482422,
	  		"lon": 1.3766969442367554,
	    	"place_name": "Saint-Aignan"
		}  ,
		{
	  		"lat": 46.9865819,
	  		"lon": 1.1745103,
	    	"place_name": "Châtillon-Sur-Indre"
		}
	  ]
	},
	{
	  "name": "Epistream",
	  "website": "https://epistream.fr",
	  "bulk_purchase": "only",
	  "organic": "yes",
	  "validated_with_owner": false,
	  "places": [
	  	{
	  		"lat": 46.77912,
	  		"lon": -1.62151,
	    	"place_name": "Chapelle Palluau"
		},
		{
	  		"lat": 46.82516,
	  		"lon": -1.76161,
	    	"place_name": "Saint-Christophe du Ligneron"
		},
		{
	  		"lat": 46.78328,
	  		"lon": -1.43000,
	    	"place_name": "Marché de Belleville-sur-Vie"
		},
		{
	  		"lat": 46.82390,
	  		"lon": -1.52988,
	    	"place_name": "Beaufou"
		},
		{
	  		"lat": 46.76860,
	  		"lon": -1.50948,
	    	"place_name": "Le Poiré-sur-Vie"
		}
	  ]
	},
	{
	  "name": "L'Akanomy",
	  "website": "https://www.facebook.com/LAkanomy/",
	  "bulk_purchase": "only",
	  "organic": "yes",
	  "validated_with_owner": false,
	  "places": [
	  	{
	  		"lat": 46.5761111,
	  		"lon": -0.024166666666666666,
	    	"place_name": "Vasles"
		},
		{
	  		"lat": 46.6486111,
	  		"lon": -0.2477777777777778,
	    	"place_name": "Parthenay"
		},
		{
	  		"lat": 46.2227778,
	  		"lon": -0.1438888888888889,
	    	"place_name": "Melle"
		},
		{
	  		"lat": 46.6580556,
	  		"lon": -0.07472222222222222,
	    	"place_name": "La Ferrière-en-Parthenay"
		},
		{
	  		"lat": 46.5725,
	  		"lon": -0.3047222222222222,
	    	"place_name": "Château Bourdin La Fabrik"
		},
		{
	  		"lat": 46.4833333,
	  		"lon": -0.4038888888888889,
	    	"place_name": "Champdeniers"
		},
		{
	  		"lat": 46.6619444,
	  		"lon": -0.23305555555555557,
	    	"place_name": "Châtillon sur Thouet"
		}
	  ]
	},
	{
	  "name": "Le Vrac Ambulant",
	  "website": "https://www.facebook.com/levracambulant/",
	  "bulk_purchase": "only",
	  "organic": "yes",
	  "validated_with_owner": false,
	  "places": [
		{
	  		"lat": 46.06027,
	  		"lon": 6.57986,
	    	"place_name": "Marché de Cluses"
		},
		{
	  		"lat": 46.07758,
	  		"lon": 6.40804,
	    	"place_name": "Marché de Bonneville"
		},
		{
	  		"lat": 46.06697,
	  		"lon": 6.31139,
	    	"place_name": "Marché de La-Roche-sur-Foron"
		},
		{
	  		"lat": 46.09060,
	  		"lon": 6.50118,
	    	"place_name": "Marché de Marignier"
		},
		{
	  		"lat": 46.05688,
	  		"lon": 6.55022,
	    	"place_name": "Marché de Scionzier"
		}
	  ]
	},
	{
	  "name": "Aux Merveilles d’Alice",
	  "website": "https://facebook.com/aliceetsesmerveilles/",
	  "bulk_purchase": "only",
	  "organic": "yes",
	  "validated_with_owner": false,
	  "places": []
	},
  	{
	  "name": "Épicerie Bigre",
	  "website": "https://www.epiceriebigre.com/",
	  "bulk_purchase": "only",
	  "organic": "yes",
	  "validated_with_owner": false,
	  "places": [
	  	{
	  		"lat": 48.80620,
	  		"lon": 2.13205,
	    	"place_name": "Marche Notre Dame, Versailles"
		},
		{
	  		"lat": 48.79844,
	  		"lon": 2.12471,
	    	"place_name": "Marche Saint Louis, Versailles"
		}
	  ]
	},
  	{
	  "name": "Envie d'épices",
	  "website": "https://www.facebook.com/enviedepices",
	  "bulk_purchase": "only",
	  "organic": "only",
	  "validated_with_owner": false,
	  "places": [
	  	{
	  		"lat": 47.27923,
	  		"lon": -2.21563,
	    	"place_name": "Marché des Halles, Saint-Nazaire"
		}
	  ]
	},
  	{
	  "name": "EnVie de Vrac",
	  "website": "https://www.facebook.com/enViedeVrac/",
	  "bulk_purchase": "only",
	  "organic": "only",
	  "validated_with_owner": false,
	  "places": [
	  	{
	  		"lat": 44.85392,
	  		"lon": 3.33082,
	    	"place_name": "Marché du Malzieu"
		},
	  	{
	  		"lat": 44.79987,
	  		"lon": 3.27622,
	    	"place_name": "Marché de St Chély d'Apcher"
		},
	  	{
	  		"lat": 44.72259,
	  		"lon": 3.28103,
	    	"place_name": "Mraché d'Aumont-Aubrac"
		},
	  	{
	  		"lat": 44.55207,
	  		"lon": 3.29139,
	    	"place_name": "Marché de Marvejols"
		}
	  ]
	},
	{
	  "name": "La Main dans l'Sac",
	  "website": "http://lamaindanslsac.fr/",
	  "bulk_purchase": "only",
	  "organic": "yes",
	  "validated_with_owner": false,
	  "places": []
	},
  	{
	  "name": "La Mesurette",
	  "website": "http://www.lamesurette.fr/",
	  "bulk_purchase": "only",
	  "organic": "yes",
	  "validated_with_owner": false,
	  "places": [
	  	{
	  		"lat": 47.34158,
	  		"lon": -1.52684,
	    	"place_name": "Place du marché, Sucé-sur-Erdre"
		},
		{
	  		"lat": 47.36529,
	  		"lon": -1.60560,
	    	"place_name": "Place de l'église, Grandchamp-des-Fontaines"
		},
		{
	  		"lat": 47.50147,
	  		"lon": -1.57965,
	    	"place_name": "Place de la mairie, Saffré"
		},
		{
	  		"lat": 47.55247, 
	  		"lon": -1.53254,
	    	"place_name": "Abbaretz"
		}
	  ]
	},
  	{
	  "name": "La p'tite roulotte",
	  "website": "http://www.laptiteroulotte.com/",
	  "bulk_purchase": "only",
	  "organic": "yes",
	  "validated_with_owner": false,
	  "places": [
	  	{
	  		"lat": 44.84111,
	  		"lon": 0.21619,
	    	"place_name": "Marché de Sainte-Foy-la-Grande, Place du marché"
		},
		{
	  		"lat": 44.91485,
	  		"lon": -0.24491,
	    	"place_name": "Marché de Libourne, Place Abel Surchamp"
		},
		{
	  		"lat": 44.8534,
	  		"lon": -0.04352,
	    	"place_name": "Marché de Castillon La Bataille, Place Boyer Andrivet"
		},
		{
	  		"lat": 44.8404653, 
	  		"lon": 0.1217308,
	    	"place_name": "Marché de producteurs, Ferme des Gardes - Saint-Antoine-de-Breuilh"
		}
	  ]
	},
	{
	  "name": "La Réserve Bio",
	  "website": "https://reservebio.fr/emplacement/",
	  "bulk_purchase": "only",
	  "organic": "yes",
	  "validated_with_owner": false,
	  "places": [
	  	{
	  		"lat": 47.315953,
	  		"lon": 5.02600,
	    	"place_name": "Marché du Port du Canal"
		},
	  	{
	  		"lat": 47.230157,
	  		"lon": 5.19464,
	    	"place_name": "Marché de Varanges"
		},
	  	{
	  		"lat": 47.280558,
	  		"lon": 5.002832,
	    	"place_name": "Marché de Marsannay-la-Côte"
		},
	  	{
	  		"lat": 47.297403,
	  		"lon": 4.808365,
	    	"place_name": "Marché de Pont-de-Pany"
		},
	  	{
	  		"lat": 47.133509,
	  		"lon": 5.215763,
	    	"place_name": "Marché Brazey-en-Plaine"
		},
	  	{
	  		"lat": 47.136503,
	  		"lon": 4.949739,
	    	"place_name": "Marché Nuits-Saint-Georges"
		},
	  	{
	  		"lat": 47.242861,
	  		"lon": 5.219892,
	    	"place_name": "Marché Genlis"
		},
	  	{
	  		"lat": 47.121478,
	  		"lon": 5.399453,
	    	"place_name": "Marché Bio Ferme de la Bussière"
		},
	  	{
	  		"lat": 47.313230,
	  		"lon": 5.110987,
	    	"place_name": "Marché Bio de Quetigny"
		},
	  	{
	  		"lat": 47.319045,
	  		"lon": 5.040519,
	    	"place_name": "Marché Place des Cordeliers - Dijon"
		},
	  	{
	  		"lat": 47.521913,
	  		"lon": 5.112264,
	    	"place_name": "Marché Is-sur-Tille"
		}
	  ]
	},
	{
	  "name": "La Vrac en Folie",
	  "website": "https://www.facebook.com/lavracenfolie/",
	  "bulk_purchase": "only",
	  "organic": "yes",
	  "validated_with_owner": false,
	  "places": []
	},
	{
	  "name": "La Vrac Mobile",
	  "website": "https://www.vrac-mobile.com/",
	  "bulk_purchase": "only",
	  "organic": "yes",
	  "validated_with_owner": true,
	  "places": [
	  	{
	  		"lat": 43.4838, 
	  		"lon": -1.51186,
	  		"place_name": "Marché de Quintaou - Anglet"
	  	},
	  	{
	  		"lat": 43.36816,
	  		"lon": -1.78145, 
	  		"place_name": "Water Sports Center - Quai de Floride, Hendaye"
	  	},
	  	{
	  		"lat": 43.67087,
	  		"lon": -1.39,
	  		"place_name": "Parking Billabong - 100 av. Sabotiers, Soorts-Hossegor"
	  	},
	  	{
	  		"lat": 43.66411,
	  		"lon": -1.39487,
	  		"place_name": "Marché de Pays de Soorts - 19 av. du centre, Soorts-Hossegor"
	  	}
	  ]
	},
	{
	  "name": "Les courses en vrac",
	  "website": "https://www.facebook.com/lescoursesensac/",
	  "bulk_purchase": "only",
	  "organic": "only",
	  "validated_with_owner": true,
	  "places": [
	  	{
	  		"lat": 47.43758, 
	  		"lon": -2.09227,
	  		"place_name": "Marché de Pontchateau"
	  	},
	  	{
	  		"lat": 47.42933,
	  		"lon": -2.39101, 
	  		"place_name": "Marché d'Assérac"
	  	},
	  	{
	  		"lat": 47.4896262,
	  		"lon": -2.2412034,
	  		"place_name": "Les Vergers de Briére - Missillac"
	  	},
	  	{
	  		"lat": 47.3479520,
	  		"lon": -2.3631991,
	  		"place_name": "La Ferme de Lévera - La Madeleine de Guérande"
	  	},
	  	{
	  		"lat": 47.32826,
	  		"lon": -2.42954,
	  		"place_name": "Marché de Guérande"
	  	},
	  	{
	  		"lat": 47.32826,
	  		"lon": -2.42954,
	  		"place_name": "Marché de Saint-Nazaire"
	  	}
	  ]
	},
	{
	  "name": "Le BoCal'Mion",
	  "website": "https://www.facebook.com/lebocalmion",
	  "bulk_purchase": "only",
	  "organic": "yes",
	  "validated_with_owner": false,
	  "places": []
	},
	{
	  "name": "Les Z’écolonomiks",
	  "website": "https://www.facebook.com/LesZecolonomiks/",
	  "bulk_purchase": "only",
	  "organic": "yes",
	  "validated_with_owner": false,
	  "places": [
	  	{
	  		"lat": 43.95445, 
	  		"lon": 5.02669,
	  		"place_name": "Marché de Velleron"
	  	}
	  ]
	},
	{
	  "name": "Mik'a Vrak",
	  "website": "https://www.facebook.com/mikavrak/",
	  "bulk_purchase": "only",
	  "organic": "yes",
	  "validated_with_owner": false,
	  "places": [
	  	{
	  		"lat": 45.93492, 
	  		"lon": -0.52394,
	  		"place_name": "Marché de Saint-Jean-d'Angély"
	  	},
	  	{
	  		"lat": 45.86658, 
	  		"lon": -0.25780,
	  		"place_name": "Marché de Haimps"
	  	},
	  	{
	  		"lat": 45.75692, 
	  		"lon": -0.61729,
	  		"place_name": "L'autre marché au silo, Saintes"
	  	},
	  	{
	  		"lat": 45.79961, 
	  		"lon": -0.43784,
	  		"place_name": "Marché fermier, Villars-les-bois"
	  	}
	  ]
	},
	{
	  "name": "On Part en Vrac",
	  "website": "https://www.onpartenvrac.com/",
	  "bulk_purchase": "only",
	  "organic": "yes",
	  "validated_with_owner": false,
	  "places": []
	},
  	{
	  "name": "Ti boco",
	  "website": "https://www.ti-boco.com/",
	  "bulk_purchase": "only",
	  "organic": "yes",
	  "validated_with_owner": false,
	  "places": [
	  	{
		  "lat": 47.58494,
		  "lon": -3.07594,
		  "place_name": "Carnac"
		},
		{
		  "lat": 7.662100,
		  "lon": -2.450530,
		  "place_name": "Marché de Questembert"
		},
		{
		  "lat": 47.666351,
		  "lon": -2.982640,
		  "place_name": "Marché de Auray"
		},
		{
		  "lat": 47.717441,
		  "lon": -2.580414,
		  "place_name": "Elven (Diana Pet Food)"
		},
		{
		  "lat": 47.711650,
		  "lon": -2.516040,
		  "place_name": "Larré (Bourg)"
		},
		{
		  "lat": 47.682704,
		  "lon": -2.614223,
		  "place_name": "Treffléan (Parking du Dévehat)"
		},
		{
		  "lat": 47.6421152,
		  "lon": -2.7558584,
		  "place_name": "Vannes - Zone du PIBS"
		},
		{
		  "lat": 47.555240,
		  "lon": -2.480220,
		  "place_name": "Marché de Muzillac"
		},
		{
		  "lat": 47.629130,
		  "lon": -2.648990,
		  "place_name": "Marché de Theix"
		},
		{
		  "lat": 47.680526,
		  "lon": -2.614046,
		  "place_name": "Marché de Treffléan"
		},
	  ]
	},
	{
	  "name": "Tootopoids",
	  "website": "https://tootopoids.com/",
	  "bulk_purchase": "only",
	  "organic": "yes",
	  "validated_with_owner": false,
	  "places": [

	  ]
	},
	{
	  "name": "Tour'N Vrac",
	  "website": "https://www.facebook.com/tournvrac",
	  "bulk_purchase": "only",
	  "organic": "yes",
	  "validated_with_owner": true,
	  "places": [
	  	{
	  		"lat": 47.11272,
	  		"lon": 0.62188,
	  		"place_name": "Marché de Sainte-Maure-de-Touraine"
	  	},
	  	{
	  		"lat": 47.12008,
	  		"lon": 0.42450,
	  		"place_name": "Marché de L'Ile Bouchard"
	  	},
	  	{
	  		"lat": 46.97420,
	  		"lon": 0.69966,
	  		"place_name": "Marché de Descartes"
	  	},
	  	{
	  		"lat": 47.04341,
	  		"lon": 0.81833,
	  		"place_name": "Marché et AMAP de Ligueil"
	  	},
	  	{
	  		"lat": 47.01206,
	  		"lon": 0.32641,
	  		"place_name": "Marché et AMAP de Richelieu"
	  	},
	  	{
	  		"lat": 47.05072,
	  		"lon": 0.54752,
	  		"place_name": "Marché de Nouâtre"
	  	},
	  	{
	  		"lat": 46.94817,
	  		"lon": 0.41468 ,
	  		"place_name": "Boulangerie de Jaulnay"
	  	}
 	  ]
	},
  	{
	  "name": "Un p'tit grain de...!",
	  "website": "https://www.unptitgrainde.com/",
	  "bulk_purchase": "only",
	  "organic": "only",
	  "validated_with_owner": true,
	  "places": [
	  	{
	  		"lat": 47.58494,
	  		"lon": -3.07594,
	  		"place_name": "Carnac"
	  	},
	  	{
	  		"lat": 47.72031,
	  		"lon": -2.99904,
	  		"place_name": "Brec'h"
	  	},
	  	{
	  		"lat": 47.61606,
	  		"lon": -3.00139,
	  		"place_name": "Crac'h"
	  	},
	  	{
	  		"lat": 47.60645,
	  		"lon": -2.99570,
	  		"place_name": "Cap Ressourcerie - Crac'h"
	  	},
	  	{
	  		"lat": 47.66215,
	  		"lon": -3.00406,
	  		"place_name": "Devant la boutique en bois - Auray (sur Commande)"
	  	},
	  	{
	  		"lat": 47.63877,
	  		"lon": -3.04876,
	  		"place_name": "Devant le Bocal - Carnac"
	  	}
	  ]
	},
	{
	  "name": "V'la le Vrac",
	  "website": "https://www.facebook.com/VLALEVRAC",
	  "bulk_purchase": "only",
	  "organic": "yes",
	  "validated_with_owner": false,
	  "places": []
	},
	{
	  "name": "Vrac en Vadrouille",
	  "website": "http://www.vracenvadrouille.fr/",
	  "bulk_purchase": "only",
	  "organic": "yes",
	  "validated_with_owner": false,
	  "places": [
	  	{
	  		"lat": 44.77667,
	  		"lon": -1.11951,
	  		"place_name": "A côté du Locavor, Arès"
	  	},
	  	{
	  		"lat": 44.69043,
	  		"lon": -0.85448,
	  		"place_name": "Marché local, Marcheprime"
	  	},
	  	{
	  		"lat": 44.66382,
	  		"lon": -0.91196,
	  		"place_name": "Petit Marché des Argentières, Biganos"
	  	},
	  	{
	  		"lat": 44.55146,
	  		"lon": -0.86891,
	  		"place_name": "Marché de Salles, Salles"
	  	},
	  	{
	  		"lat": 44.63976,
	  		"lon": -1.07106,
	  		"place_name": "Marché de Gujan-Mestras"
	  	},
	  	{
	  		"lat": 44.86476,
	  		"lon": -0.58749,
	  		"place_name": "Marché du Bouscat, Bouscat"
	  	}
	  ]
	},
	{
	  "name": "Vrac facile",
	  "website": "https://www.facebook.com/Vracfacile/",
	  "bulk_purchase": "only",
	  "organic": "yes",
	  "validated_with_owner": false,
	  "places": [
	  	{
	  		"lat": 47.3589026,
	  		"lon": -1.9434343,
	  		"place_name": "Marché de Savenay"
	  	},
	  	{
	  		"lat": 47.2137314,
	  		"lon": -1.5873538,
	  		"place_name": "Marché de Zola - Nantes"
	  	},
	  	{
	  		"lat": 47.2341667,
	  		"lon": -1.5324899,
	  		"place_name": "Marché de la Marrière - Nantes"
	  	},
	  	{
	  		"lat": 47.18081,
	  		"lon": -1.58674,
	  		"place_name": "Marché des Bouguenais les Couets"
	  	},
	  	{
	  		"lat": 47.2498,
	  		"lon": -1.48393,
	  		"place_name": "Marché de Sainte-Luce-sur-Loire"
	  	},
	  	{
	  		"lat": 47.19858,
	  		"lon": -1.67446,
	  		"place_name": "Marché de Basse-Indre"
	  	}
	  ]
	},
	{
	  "name": "Vrac & Go",
	  "website": "http://www.vracngo.com",
	  "bulk_purchase": "only",
	  "organic": "only",
	  "validated_with_owner": false,
	  "places": [
	  	{
	  		"lat": 43.31977,
	  		"lon": -0.58014,
	  		"place_name": "Marché de la Place Henri LACABANNE, Monein"
	  	},
	  	{
	  		"lat": 43.28325,
	  		"lon": -0.37214,
	  		"place_name": "Marché de Gelos"
	  	},
	  	{
	  		"lat": 43.22936,
	  		"lon": -0.38704,
	  		"place_name": "Marché de la place de la Mairie, Gan"
	  	},
	  	{
	  		"lat": 43.39741,
	  		"lon": -0.57224,
	  		"place_name": "Marché de Place Général de Gaulle, Artix"
	  	},
	  	{
	  		"lat": 43.33122,
	  		"lon": -0.43541,
	  		"place_name": "Marché de Lescar"
	  	},
	  	{
	  		"lat": 43.30242,
	  		"lon": -0.39965,
	  		"place_name": "Locavor de Billère, au Bel ordinaire"
	  	},
	  	{
	  		"lat": 43.32031,
	  		"lon": -0.36694,
	  		"place_name": "Technopôle Hélioparc, Pau"
	  	},
	  	{
	  		"lat": 43.30974,
	  		"lon": -0.36545,
	  		"place_name": "Parvis de la Pépinière, Pau"
	  	},
	  	{
	  		"lat": 43.35415,
	  		"lon": -0.48318,
	  		"place_name": "La Ruche qui dit oui, d’Aussevielle"
	  	},
	  	{
	  		"lat": 43.34092,
	  		"lon": -0.26482,
	  		"place_name": "Marché place de la Hourquie, Morlaàs"
	  	},
	  	{
	  		"lat": 43.28694,
	  		"lon": -0.38897,
	  		"place_name": "Marché de la Place du Junqué, Jurançon"
	  	},
	  	{
	  		"lat": 43.30013,
	  		"lon": -0.30645,
	  		"place_name": "Marché d’Idron, avenue du Stade"
	  	},
	  	{
	  		"lat": 43.37160,
	  		"lon": -0.62929,
	  		"place_name": "Marché de Mourenx"
	  	}
	  ]
	},
	{
	  "name": "Vrac'issime",
	  "website": "https://vracissime.wordpress.com/",
	  "bulk_purchase": "only",
	  "organic": "only",
	  "validated_with_owner": false,
	  "places": [
	  	{
	  		"lat": 48.73102,
	  		"lon": 7.71216,
	  		"place_name": "Marché place Victor Fischer, Brumath"
	  	},
	  	{
	  		"lat": 48.84372,
	  		"lon": 7.60749,
	  		"place_name": "Marche du Val-de-Moder, place de la République"
	  	},
	  	{
	  		"lat": 48.65955,
	  		"lon": 7.82587,
	  		"place_name": "Marché de La Wantzenau, place de l'Ecole"
	  	},
	  	{
	  		"lat": 48.66359,
	  		"lon": 7.71113,
	  		"place_name": "Marché de Vendenheim, place de la Mairie"
	  	},
	  	{
	  		"lat": 48.82136,
	  		"lon": 7.73556,
	  		"place_name": "Marché de Schweighouse-sur-Moder, place de la Mairie"
	  	},
	  	{
	  		"lat": 48.75539,
	  		"lon": 7.46481,
	  		"place_name": "Marché de Dettwiller, place de l'Ecole"
	  	}
	  ]
	},
	{
	  "name": "Vrac'n Roule'",
	  "website": "https://www.facebook.com/vracnroule/",
	  "bulk_purchase": "only",
	  "organic": "yes",
	  "validated_with_owner": false,
	  "places": [
	  	{
	  		"lat": 47.14476,
	  		"lon": -1.69022,
	  		"place_name": "Devant la salle Jacqueline Auriol - Bouaye"
	  	},
	  	{
	  		"lat": 47.18811,
	  		"lon": -1.68345,
	  		"place_name": "Marché de la Montagne - place Similien Guérin"
	  	},
	  	{
	  		"lat": 47.14189,
	  		"lon": -1.68879,
	  		"place_name": "Marché de Bouaye - place du Marché"
	  	},
	  	{
	  		"lat": 47.19234,
	  		"lon": -1.72550,
	  		"place_name": "Devant la salle des Genets - Saint-Jean-de-Boiseau"
	  	},
	  	{
	  		"lat": 47.21475,
	  		"lon": -1.90364,
	  		"place_name": "Ferme de Sergonne - Frossay"
	  	},
	  	{
	  		"lat": 47.08060,
	  		"lon": -2.03632,
	  		"place_name": "Marché de La Bernerie - bd. Chaussé du Pays de Retz"
	  	},
	  	{
	  		"lat": 47.06912,
	  		"lon": -1.91057,
	  		"place_name": "Ferme des Clos Mouillés - Bourgneuf"
	  	},
	  	{
	  		"lat": 47.20170,
	  		"lon": -1.75461,
	  		"place_name": "Marché du Pellerin - rue du docteur Sourdille"
	  	}
	  ]
	}
  ]
}
